[
  {
    "metar_id": 439554886,
    "icaoId": "LSZH",
    "receiptTime": "2023-10-30 00:52:12",
    "obsTime": 1698627000,
    "reportTime": "2023-10-30 01:00:00",
    "temp": 7,
    "dewp": 7,
    "wdir": "VRB",
    "wspd": 2,
    "wgst": null,
    "visib": "6+",
    "altim": 1006,
    "slp": null,
    "qcField": 18,
    "wxString": null,
    "presTend": null,
    "maxT": null,
    "minT": null,
    "maxT24": null,
    "minT24": null,
    "precip": null,
    "pcp3hr": null,
    "pcp6hr": null,
    "pcp24hr": null,
    "snow": null,
    "vertVis": null,
    "metarType": "METAR",
    "rawOb": "LSZH 300050Z AUTO VRB02KT CAVOK 07/07 Q1006 NOSIG",
    "mostRecent": 1,
    "lat": 47.48,
    "lon": 8.536,
    "elev": 424,
    "prior": 4,
    "name": "Zürich Intl Arpt, ZH, CH",
    "clouds": [
      {
        "cover": "CAVOK",
        "base": null
      }
    ],
    "rawTaf": "TAF LSZH 292325Z 3000/3106 VRB02KT CAVOK TX15/3013Z TN06/3006Z TN09/3106Z BECMG 3002/3004 8000 MIFG NSC PROB30 3003/3007 1200 PRFG NSC BECMG 3006/3009 CAVOK BECMG 3013/3015 9999 BKN050 TEMPO 3014/3024 RA"
  },
  {
    "metar_id": 439548580,
    "icaoId": "LSZH",
    "receiptTime": "2023-10-30 00:22:20",
    "obsTime": 1698625200,
    "reportTime": "2023-10-30 00:20:00",
    "temp": 7,
    "dewp": 7,
    "wdir": 300,
    "wspd": 2,
    "wgst": null,
    "visib": "6+",
    "altim": 1006,
    "slp": null,
    "qcField": 18,
    "wxString": null,
    "presTend": null,
    "maxT": null,
    "minT": null,
    "maxT24": null,
    "minT24": null,
    "precip": null,
    "pcp3hr": null,
    "pcp6hr": null,
    "pcp24hr": null,
    "snow": null,
    "vertVis": null,
    "metarType": "METAR",
    "rawOb": "LSZH 300020Z AUTO 30002KT CAVOK 07/07 Q1006 NOSIG",
    "mostRecent": 0,
    "lat": 47.48,
    "lon": 8.536,
    "elev": 424,
    "prior": 4,
    "name": "Zürich Intl Arpt, ZH, CH",
    "clouds": [
      {
        "cover": "CAVOK",
        "base": null
      }
    ],
    "rawTaf": "TAF LSZH 292325Z 3000/3106 VRB02KT CAVOK TX15/3013Z TN06/3006Z TN09/3106Z BECMG 3002/3004 8000 MIFG NSC PROB30 3003/3007 1200 PRFG NSC BECMG 3006/3009 CAVOK BECMG 3013/3015 9999 BKN050 TEMPO 3014/3024 RA"
  },
  {
    "metar_id": 439532832,
    "icaoId": "LSZH",
    "receiptTime": "2023-10-29 23:52:14",
    "obsTime": 1698623400,
    "reportTime": "2023-10-30 00:00:00",
    "temp": 7,
    "dewp": 7,
    "wdir": "VRB",
    "wspd": 3,
    "wgst": null,
    "visib": "6+",
    "altim": 1006,
    "slp": null,
    "qcField": 18,
    "wxString": null,
    "presTend": null,
    "maxT": null,
    "minT": null,
    "maxT24": null,
    "minT24": null,
    "precip": null,
    "pcp3hr": null,
    "pcp6hr": null,
    "pcp24hr": null,
    "snow": null,
    "vertVis": null,
    "metarType": "METAR",
    "rawOb": "LSZH 292350Z AUTO VRB03KT CAVOK 07/07 Q1006 NOSIG",
    "mostRecent": 0,
    "lat": 47.48,
    "lon": 8.536,
    "elev": 424,
    "prior": 4,
    "name": "Zürich Intl Arpt, ZH, CH",
    "clouds": [
      {
        "cover": "CAVOK",
        "base": null
      }
    ],
    "rawTaf": "TAF LSZH 292325Z 3000/3106 VRB02KT CAVOK TX15/3013Z TN06/3006Z TN09/3106Z BECMG 3002/3004 8000 MIFG NSC PROB30 3003/3007 1200 PRFG NSC BECMG 3006/3009 CAVOK BECMG 3013/3015 9999 BKN050 TEMPO 3014/3024 RA"
  },
  {
    "metar_id": 439526510,
    "icaoId": "LSZH",
    "receiptTime": "2023-10-29 23:22:18",
    "obsTime": 1698621600,
    "reportTime": "2023-10-29 23:20:00",
    "temp": 9,
    "dewp": 7,
    "wdir": "VRB",
    "wspd": 2,
    "wgst": null,
    "visib": "6+",
    "altim": 1006,
    "slp": null,
    "qcField": 18,
    "wxString": null,
    "presTend": null,
    "maxT": null,
    "minT": null,
    "maxT24": null,
    "minT24": null,
    "precip": null,
    "pcp3hr": null,
    "pcp6hr": null,
    "pcp24hr": null,
    "snow": null,
    "vertVis": null,
    "metarType": "METAR",
    "rawOb": "LSZH 292320Z AUTO VRB02KT CAVOK 09/07 Q1006 NOSIG",
    "mostRecent": 0,
    "lat": 47.48,
    "lon": 8.536,
    "elev": 424,
    "prior": 4,
    "name": "Zürich Intl Arpt, ZH, CH",
    "clouds": [
      {
        "cover": "CAVOK",
        "base": null
      }
    ],
    "rawTaf": "TAF LSZH 292325Z 3000/3106 VRB02KT CAVOK TX15/3013Z TN06/3006Z TN09/3106Z BECMG 3002/3004 8000 MIFG NSC PROB30 3003/3007 1200 PRFG NSC BECMG 3006/3009 CAVOK BECMG 3013/3015 9999 BKN050 TEMPO 3014/3024 RA"
  },
  {
    "metar_id": 439510646,
    "icaoId": "LSZH",
    "receiptTime": "2023-10-29 22:52:13",
    "obsTime": 1698619800,
    "reportTime": "2023-10-29 23:00:00",
    "temp": 9,
    "dewp": 7,
    "wdir": 150,
    "wspd": 4,
    "wgst": null,
    "visib": "6+",
    "altim": 1006,
    "slp": null,
    "qcField": 18,
    "wxString": null,
    "presTend": null,
    "maxT": null,
    "minT": null,
    "maxT24": null,
    "minT24": null,
    "precip": null,
    "pcp3hr": null,
    "pcp6hr": null,
    "pcp24hr": null,
    "snow": null,
    "vertVis": null,
    "metarType": "METAR",
    "rawOb": "LSZH 292250Z AUTO 15004KT 090V170 CAVOK 09/07 Q1006 NOSIG",
    "mostRecent": 0,
    "lat": 47.48,
    "lon": 8.536,
    "elev": 424,
    "prior": 4,
    "name": "Zürich Intl Arpt, ZH, CH",
    "clouds": [
      {
        "cover": "CAVOK",
        "base": null
      }
    ],
    "rawTaf": "TAF LSZH 292325Z 3000/3106 VRB02KT CAVOK TX15/3013Z TN06/3006Z TN09/3106Z BECMG 3002/3004 8000 MIFG NSC PROB30 3003/3007 1200 PRFG NSC BECMG 3006/3009 CAVOK BECMG 3013/3015 9999 BKN050 TEMPO 3014/3024 RA"
  },
  {
    "metar_id": 439504349,
    "icaoId": "LSZH",
    "receiptTime": "2023-10-29 22:22:18",
    "obsTime": 1698618000,
    "reportTime": "2023-10-29 22:20:00",
    "temp": 10,
    "dewp": 8,
    "wdir": 150,
    "wspd": 4,
    "wgst": null,
    "visib": "6+",
    "altim": 1006,
    "slp": null,
    "qcField": 16,
    "wxString": null,
    "presTend": null,
    "maxT": null,
    "minT": null,
    "maxT24": null,
    "minT24": null,
    "precip": null,
    "pcp3hr": null,
    "pcp6hr": null,
    "pcp24hr": null,
    "snow": null,
    "vertVis": null,
    "metarType": "METAR",
    "rawOb": "LSZH 292220Z 15004KT CAVOK 10/08 Q1006 NOSIG",
    "mostRecent": 0,
    "lat": 47.48,
    "lon": 8.536,
    "elev": 424,
    "prior": 4,
    "name": "Zürich Intl Arpt, ZH, CH",
    "clouds": [
      {
        "cover": "CAVOK",
        "base": null
      }
    ],
    "rawTaf": "TAF LSZH 292325Z 3000/3106 VRB02KT CAVOK TX15/3013Z TN06/3006Z TN09/3106Z BECMG 3002/3004 8000 MIFG NSC PROB30 3003/3007 1200 PRFG NSC BECMG 3006/3009 CAVOK BECMG 3013/3015 9999 BKN050 TEMPO 3014/3024 RA"
  }
]