[
  {
    "metar_id": 439534974,
    "icaoId": "KMCI",
    "receiptTime": "2023-10-29 23:56:23",
    "obsTime": 1698623580,
    "reportTime": "2023-10-30 00:00:00",
    "temp": 1.7,
    "dewp": -2.8,
    "wdir": 340,
    "wspd": 12,
    "wgst": null,
    "visib": "10+",
    "altim": 1026.5,
    "slp": 1027.3,
    "qcField": 4,
    "wxString": null,
    "presTend": 1.5,
    "maxT": 2.8,
    "minT": 1.7,
    "maxT24": null,
    "minT24": null,
    "precip": null,
    "pcp3hr": null,
    "pcp6hr": null,
    "pcp24hr": null,
    "snow": null,
    "vertVis": null,
    "metarType": "METAR",
    "rawOb": "KMCI 292353Z 34012KT 10SM OVC090 02/M03 A3031 RMK AO2 SLP273 T00171028 10028 20017 53015",
    "mostRecent": 1,
    "lat": 39.2975,
    "lon": -94.7309,
    "elev": 308,
    "prior": 1,
    "name": "Kansas City Intl, MO, US",
    "clouds": [
      {
        "cover": "OVC",
        "base": 9000
      }
    ]
  },
  {
    "metar_id": 439513328,
    "icaoId": "KMCI",
    "receiptTime": "2023-10-29 22:56:27",
    "obsTime": 1698619980,
    "reportTime": "2023-10-29 23:00:00",
    "temp": 2.2,
    "dewp": -2.2,
    "wdir": 360,
    "wspd": 14,
    "wgst": null,
    "visib": "10+",
    "altim": 1025.8,
    "slp": 1026.6,
    "qcField": 4,
    "wxString": null,
    "presTend": null,
    "maxT": null,
    "minT": null,
    "maxT24": null,
    "minT24": null,
    "precip": null,
    "pcp3hr": null,
    "pcp6hr": null,
    "pcp24hr": null,
    "snow": null,
    "vertVis": null,
    "metarType": "METAR",
    "rawOb": "KMCI 292253Z 36014KT 10SM OVC090 02/M02 A3029 RMK AO2 SLP266 T00221022",
    "mostRecent": 0,
    "lat": 39.2975,
    "lon": -94.7309,
    "elev": 308,
    "prior": 1,
    "name": "Kansas City Intl, MO, US",
    "clouds": [
      {
        "cover": "OVC",
        "base": 9000
      }
    ]
  },
  {
    "metar_id": 439490878,
    "icaoId": "KMCI",
    "receiptTime": "2023-10-29 21:56:16",
    "obsTime": 1698616380,
    "reportTime": "2023-10-29 22:00:00",
    "temp": 2.2,
    "dewp": -2.2,
    "wdir": 340,
    "wspd": 10,
    "wgst": null,
    "visib": "10+",
    "altim": 1025.5,
    "slp": 1026.2,
    "qcField": 4,
    "wxString": null,
    "presTend": null,
    "maxT": null,
    "minT": null,
    "maxT24": null,
    "minT24": null,
    "precip": null,
    "pcp3hr": null,
    "pcp6hr": null,
    "pcp24hr": null,
    "snow": null,
    "vertVis": null,
    "metarType": "METAR",
    "rawOb": "KMCI 292153Z 34010KT 10SM FEW023 OVC070 02/M02 A3028 RMK AO2 SLP262 T00221022",
    "mostRecent": 0,
    "lat": 39.2975,
    "lon": -94.7309,
    "elev": 308,
    "prior": 1,
    "name": "Kansas City Intl, MO, US",
    "clouds": [
      {
        "cover": "FEW",
        "base": 2300
      },
      {
        "cover": "OVC",
        "base": 7000
      }
    ]
  }
]